[{"OBJECT_NAME":"STARLINK-36365","OBJECT_ID":"2026-022U","EPOCH":"2026-03-09T22:00:01.999584","MEAN_MOTION":15.72590104,"ECCENTRICITY":0.00017297,"INCLINATION":97.2853,"RA_OF_ASC_NODE":102.9404,"ARG_OF_PERICENTER":72.788,"MEAN_ANOMALY":45.9093,"EPHEMERIS_TYPE":0,"CLASSIFICATION_TYPE":"U","NORAD_CAT_ID":67666,"ELEMENT_SET_NO":999,"REV_AT_EPOCH":608,"BSTAR":-0.016261278,"MEAN_MOTION_DOT":-0.01889886,"MEAN_MOTION_DDOT":0},{"OBJECT_NAME":"FENGYUN 1C DEB","OBJECT_ID":"1999-025AMT","EPOCH":"2026-03-09T00:15:23.574528","MEAN_MOTION":15.70909629,"ECCENTRICITY":0.00138927,"INCLINATION":99.0703,"RA_OF_ASC_NODE":83.4899,"ARG_OF_PERICENTER":75.2074,"MEAN_ANOMALY":313.8054,"EPHEMERIS_TYPE":0,"CLASSIFICATION_TYPE":"U","NORAD_CAT_ID":30612,"ELEMENT_SET_NO":999,"REV_AT_EPOCH":1589,"BSTAR":0.0070902188,"MEAN_MOTION_DOT":0.00977467,"MEAN_MOTION_DDOT":0}]
